[{"OBJECT_NAME":"STARLINK-30404","OBJECT_ID":"2023-141P","EPOCH":"2026-03-09T21:18:29.057184","MEAN_MOTION":15.30188798,"ECCENTRICITY":0.00010347,"INCLINATION":53.16,"RA_OF_ASC_NODE":282.8255,"ARG_OF_PERICENTER":95.2684,"MEAN_ANOMALY":264.8435,"EPHEMERIS_TYPE":0,"CLASSIFICATION_TYPE":"U","NORAD_CAT_ID":57853,"ELEMENT_SET_NO":999,"REV_AT_EPOCH":14036,"BSTAR":2.22678e-5,"MEAN_MOTION_DOT":3.0e-6,"MEAN_MOTION_DDOT":0},{"OBJECT_NAME":"GENMAT-1","OBJECT_ID":"2023-174W","EPOCH":"2026-03-09T18:03:23.351040","MEAN_MOTION":15.32594666,"ECCENTRICITY":0.00074416,"INCLINATION":97.3728,"RA_OF_ASC_NODE":146.8236,"ARG_OF_PERICENTER":169.2515,"MEAN_ANOMALY":190.8888,"EPHEMERIS_TYPE":0,"CLASSIFICATION_TYPE":"U","NORAD_CAT_ID":58276,"ELEMENT_SET_NO":999,"REV_AT_EPOCH":12973,"BSTAR":0.00042157222,"MEAN_MOTION_DOT":0.0001321,"MEAN_MOTION_DDOT":0}]
